<?xml version="1.0" encoding="UTF-8"?>
<ndm xmlns:xsi="http://www.w3.org/2001/XMLSchema-instance" xsi:noNamespaceSchemaLocation="https://sanaregistry.org/r/ndmxml_unqualified/ndmxml-2.0.0-master-2.0.xsd">
<omm id="CCSDS_OMM_VERS" version="2.0">
<header><CREATION_DATE/><ORIGINATOR/></header><body><segment><metadata><OBJECT_NAME>ONEWEB-0685</OBJECT_NAME><OBJECT_ID>2022-166AP</OBJECT_ID><CENTER_NAME>EARTH</CENTER_NAME><REF_FRAME>TEME</REF_FRAME><TIME_SYSTEM>UTC</TIME_SYSTEM><MEAN_ELEMENT_THEORY>SGP4</MEAN_ELEMENT_THEORY></metadata><data><meanElements><EPOCH>2024-08-27T14:37:38.122464</EPOCH><MEAN_MOTION>13.21828025</MEAN_MOTION><ECCENTRICITY>.0001676</ECCENTRICITY><INCLINATION>87.9333</INCLINATION><RA_OF_ASC_NODE>15.1003</RA_OF_ASC_NODE><ARG_OF_PERICENTER>88.5068</ARG_OF_PERICENTER><MEAN_ANOMALY>271.6258</MEAN_ANOMALY></meanElements><tleParameters><EPHEMERIS_TYPE>0</EPHEMERIS_TYPE><CLASSIFICATION_TYPE>U</CLASSIFICATION_TYPE><NORAD_CAT_ID>54679</NORAD_CAT_ID><ELEMENT_SET_NO>999</ELEMENT_SET_NO><REV_AT_EPOCH>8441</REV_AT_EPOCH><BSTAR>.46329E-4</BSTAR><MEAN_MOTION_DOT>.32E-6</MEAN_MOTION_DOT><MEAN_MOTION_DDOT>0</MEAN_MOTION_DDOT></tleParameters></data></segment></body></omm>
<omm id="CCSDS_OMM_VERS" version="2.0">
<header><CREATION_DATE/><ORIGINATOR/></header><body><segment><metadata><OBJECT_NAME>ONEWEB-0712</OBJECT_NAME><OBJECT_ID>2022-166AQ</OBJECT_ID><CENTER_NAME>EARTH</CENTER_NAME><REF_FRAME>TEME</REF_FRAME><TIME_SYSTEM>UTC</TIME_SYSTEM><MEAN_ELEMENT_THEORY>SGP4</MEAN_ELEMENT_THEORY></metadata><data><meanElements><EPOCH>2024-08-27T15:13:39.486720</EPOCH><MEAN_MOTION>13.17102632</MEAN_MOTION><ECCENTRICITY>.0001534</ECCENTRICITY><INCLINATION>87.9165</INCLINATION><RA_OF_ASC_NODE>359.9048</RA_OF_ASC_NODE><ARG_OF_PERICENTER>112.6427</ARG_OF_PERICENTER><MEAN_ANOMALY>247.4866</MEAN_ANOMALY></meanElements><tleParameters><EPHEMERIS_TYPE>0</EPHEMERIS_TYPE><CLASSIFICATION_TYPE>U</CLASSIFICATION_TYPE><NORAD_CAT_ID>54680</NORAD_CAT_ID><ELEMENT_SET_NO>999</ELEMENT_SET_NO><REV_AT_EPOCH>8540</REV_AT_EPOCH><BSTAR>.4165E-2</BSTAR><MEAN_MOTION_DOT>.1617E-4</MEAN_MOTION_DOT><MEAN_MOTION_DDOT>0</MEAN_MOTION_DDOT></tleParameters></data></segment></body></omm>
<omm id="CCSDS_OMM_VERS" version="2.0">
<header><CREATION_DATE/><ORIGINATOR/></header><body><segment><metadata><OBJECT_NAME>ONEWEB-0714</OBJECT_NAME><OBJECT_ID>2022-166AR</OBJECT_ID><CENTER_NAME>EARTH</CENTER_NAME><REF_FRAME>TEME</REF_FRAME><TIME_SYSTEM>UTC</TIME_SYSTEM><MEAN_ELEMENT_THEORY>SGP4</MEAN_ELEMENT_THEORY></metadata><data><meanElements><EPOCH>2024-08-27T14:46:42.972960</EPOCH><MEAN_MOTION>13.21822662</MEAN_MOTION><ECCENTRICITY>.0001681</ECCENTRICITY><INCLINATION>87.9334</INCLINATION><RA_OF_ASC_NODE>15.0865</RA_OF_ASC_NODE><ARG_OF_PERICENTER>88.0246</ARG_OF_PERICENTER><MEAN_ANOMALY>272.1080</MEAN_ANOMALY></meanElements><tleParameters><EPHEMERIS_TYPE>0</EPHEMERIS_TYPE><CLASSIFICATION_TYPE>U</CLASSIFICATION_TYPE><NORAD_CAT_ID>54681</NORAD_CAT_ID><ELEMENT_SET_NO>999</ELEMENT_SET_NO><REV_AT_EPOCH>8453</REV_AT_EPOCH><BSTAR>.3465E-3</BSTAR><MEAN_MOTION_DOT>.156E-5</MEAN_MOTION_DOT><MEAN_MOTION_DDOT>0</MEAN_MOTION_DDOT></tleParameters></data></segment></body></omm>
<omm id="CCSDS_OMM_VERS" version="2.0">
<header><CREATION_DATE/><ORIGINATOR/></header><body><segment><metadata><OBJECT_NAME>ONEWEB-0532</OBJECT_NAME><OBJECT_ID>2023-004A</OBJECT_ID><CENTER_NAME>EARTH</CENTER_NAME><REF_FRAME>TEME</REF_FRAME><TIME_SYSTEM>UTC</TIME_SYSTEM><MEAN_ELEMENT_THEORY>SGP4</MEAN_ELEMENT_THEORY></metadata><data><meanElements><EPOCH>2024-08-27T05:03:31.252032</EPOCH><MEAN_MOTION>13.17647757</MEAN_MOTION><ECCENTRICITY>.0002404</ECCENTRICITY><INCLINATION>87.9172</INCLINATION><RA_OF_ASC_NODE>137.1099</RA_OF_ASC_NODE><ARG_OF_PERICENTER>76.2212</ARG_OF_PERICENTER><MEAN_ANOMALY>283.9186</MEAN_ANOMALY></meanElements><tleParameters><EPHEMERIS_TYPE>0</EPHEMERIS_TYPE><CLASSIFICATION_TYPE>U</CLASSIFICATION_TYPE><NORAD_CAT_ID>55140</NORAD_CAT_ID><ELEMENT_SET_NO>999</ELEMENT_SET_NO><REV_AT_EPOCH>8080</REV_AT_EPOCH><BSTAR>.22687E-3</BSTAR><MEAN_MOTION_DOT>.101E-5</MEAN_MOTION_DOT><MEAN_MOTION_DDOT>0</MEAN_MOTION_DDOT></tleParameters></data></segment></body></omm>
<omm id="CCSDS_OMM_VERS" version="2.0">
<header><CREATION_DATE/><ORIGINATOR/></header><body><segment><metadata><OBJECT_NAME>ONEWEB-0533</OBJECT_NAME><OBJECT_ID>2023-004B</OBJECT_ID><CENTER_NAME>EARTH</CENTER_NAME><REF_FRAME>TEME</REF_FRAME><TIME_SYSTEM>UTC</TIME_SYSTEM><MEAN_ELEMENT_THEORY>SGP4</MEAN_ELEMENT_THEORY></metadata><data><meanElements><EPOCH>2024-08-27T09:17:27.136896</EPOCH><MEAN_MOTION>13.12442845</MEAN_MOTION><ECCENTRICITY>.0001752</ECCENTRICITY><INCLINATION>87.8922</INCLINATION><RA_OF_ASC_NODE>121.8567</RA_OF_ASC_NODE><ARG_OF_PERICENTER>72.4498</ARG_OF_PERICENTER><MEAN_ANOMALY>287.6822</MEAN_ANOMALY></meanElements><tleParameters><EPHEMERIS_TYPE>0</EPHEMERIS_TYPE><CLASSIFICATION_TYPE>U</CLASSIFICATION_TYPE><NORAD_CAT_ID>55141</NORAD_CAT_ID><ELEMENT_SET_NO>999</ELEMENT_SET_NO><REV_AT_EPOCH>8164</REV_AT_EPOCH><BSTAR>-.7538E-3</BSTAR><MEAN_MOTION_DOT>-.258E-5</MEAN_MOTION_DOT><MEAN_MOTION_DDOT>0</MEAN_MOTION_DDOT></tleParameters></data></segment></body></omm>
<omm id="CCSDS_OMM_VERS" version="2.0">
<header><CREATION_DATE/><ORIGINATOR/></header><body><segment><metadata><OBJECT_NAME>ONEWEB-0541</OBJECT_NAME><OBJECT_ID>2023-004C</OBJECT_ID><CENTER_NAME>EARTH</CENTER_NAME><REF_FRAME>TEME</REF_FRAME><TIME_SYSTEM>UTC</TIME_SYSTEM><MEAN_ELEMENT_THEORY>SGP4</MEAN_ELEMENT_THEORY></metadata><data><meanElements><EPOCH>2024-08-27T12:17:41.416224</EPOCH><MEAN_MOTION>13.11416489</MEAN_MOTION><ECCENTRICITY>.0001955</ECCENTRICITY><INCLINATION>87.8995</INCLINATION><RA_OF_ASC_NODE>152.2082</RA_OF_ASC_NODE><ARG_OF_PERICENTER>74.2287</ARG_OF_PERICENTER><MEAN_ANOMALY>285.9056</MEAN_ANOMALY></meanElements><tleParameters><EPHEMERIS_TYPE>0</EPHEMERIS_TYPE><CLASSIFICATION_TYPE>U</CLASSIFICATION_TYPE><NORAD_CAT_ID>55142</NORAD_CAT_ID><ELEMENT_SET_NO>999</ELEMENT_SET_NO><REV_AT_EPOCH>7961</REV_AT_EPOCH><BSTAR>.16443E-2</BSTAR><MEAN_MOTION_DOT>.595E-5</MEAN_MOTION_DOT><MEAN_MOTION_DDOT>0</MEAN_MOTION_DDOT></tleParameters></data></segment></body></omm>
<omm id="CCSDS_OMM_VERS" version="2.0">
<header><CREATION_DATE/><ORIGINATOR/></header><body><segment><metadata><OBJECT_NAME>ONEWEB-0543</OBJECT_NAME><OBJECT_ID>2023-004D</OBJECT_ID><CENTER_NAME>EARTH</CENTER_NAME><REF_FRAME>TEME</REF_FRAME><TIME_SYSTEM>UTC</TIME_SYSTEM><MEAN_ELEMENT_THEORY>SGP4</MEAN_ELEMENT_THEORY></metadata><data><meanElements><EPOCH>2024-08-27T07:53:10.621824</EPOCH><MEAN_MOTION>13.18685142</MEAN_MOTION><ECCENTRICITY>.0001405</ECCENTRICITY><INCLINATION>87.9089</INCLINATION><RA_OF_ASC_NODE>106.7078</RA_OF_ASC_NODE><ARG_OF_PERICENTER>79.5830</ARG_OF_PERICENTER><MEAN_ANOMALY>280.5461</MEAN_ANOMALY></meanElements><tleParameters><EPHEMERIS_TYPE>0</EPHEMERIS_TYPE><CLASSIFICATION_TYPE>U</CLASSIFICATION_TYPE><NORAD_CAT_ID>55143</NORAD_CAT_ID><ELEMENT_SET_NO>999</ELEMENT_SET_NO><REV_AT_EPOCH>8286</REV_AT_EPOCH><BSTAR>.20168E-4</BSTAR><MEAN_MOTION_DOT>.21E-6</MEAN_MOTION_DOT><MEAN_MOTION_DDOT>0</MEAN_MOTION_DDOT></tleParameters></data></segment></body></omm>
<omm id="CCSDS_OMM_VERS" version="2.0">
<header><CREATION_DATE/><ORIGINATOR/></header><body><segment><metadata><OBJECT_NAME>ONEWEB-0544</OBJECT_NAME><OBJECT_ID>2023-004E</OBJECT_ID><CENTER_NAME>EARTH</CENTER_NAME><REF_FRAME>TEME</REF_FRAME><TIME_SYSTEM>UTC</TIME_SYSTEM><MEAN_ELEMENT_THEORY>SGP4</MEAN_ELEMENT_THEORY></metadata><data><meanElements><EPOCH>2024-08-27T09:33:19.817856</EPOCH><MEAN_MOTION>13.18685424</MEAN_MOTION><ECCENTRICITY>.0001643</ECCENTRICITY><INCLINATION>87.9092</INCLINATION><RA_OF_ASC_NODE>106.6797</RA_OF_ASC_NODE><ARG_OF_PERICENTER>86.4316</ARG_OF_PERICENTER><MEAN_ANOMALY>273.7004</MEAN_ANOMALY></meanElements><tleParameters><EPHEMERIS_TYPE>0</EPHEMERIS_TYPE><CLASSIFICATION_TYPE>U</CLASSIFICATION_TYPE><NORAD_CAT_ID>55144</NORAD_CAT_ID><ELEMENT_SET_NO>999</ELEMENT_SET_NO><REV_AT_EPOCH>8287</REV_AT_EPOCH><BSTAR>-.41102E-4</BSTAR><MEAN_MOTION_DOT>-.3E-7</MEAN_MOTION_DOT><MEAN_MOTION_DDOT>0</MEAN_MOTION_DDOT></tleParameters></data></segment></body></omm>

</ndm>
