ONEWEB-0685             
1 54679U 22166AP  24240.60946901  .00000032  00000+0  46329-4 0  9997
2 54679  87.9333  15.1003 0001676  88.5068 271.6258 13.21828025 84411
ONEWEB-0712             
1 54680U 22166AQ  24240.63448480  .00001617  00000+0  41650-2 0  9991
2 54680  87.9165 359.9048 0001534 112.6427 247.4866 13.17102632 85405
ONEWEB-0714             
1 54681U 22166AR  24240.61577515  .00000156  00000+0  34650-3 0  9992
2 54681  87.9334  15.0865 0001681  88.0246 272.1080 13.21822662 84532
ONEWEB-0532             
1 55140U 23004A   24240.21077838  .00000101  00000+0  22687-3 0  9991
2 55140  87.9172 137.1099 0002404  76.2212 283.9186 13.17647757 80802
ONEWEB-0533             
1 55141U 23004B   24240.38711964 -.00000258  00000+0 -75380-3 0  9998
2 55141  87.8922 121.8567 0001752  72.4498 287.6822 13.12442845 81641
ONEWEB-0541             
1 55142U 23004C   24240.51228491  .00000595  00000+0  16443-2 0  9998
2 55142  87.8995 152.2082 0001955  74.2287 285.9056 13.11416489 79611
ONEWEB-0543             
1 55143U 23004D   24240.32859516  .00000021  00000+0  20168-4 0  9991
2 55143  87.9089 106.7078 0001405  79.5830 280.5461 13.18685142 82861
ONEWEB-0544             
1 55144U 23004E   24240.39814604 -.00000003  00000+0 -41102-4 0  9991
2 55144  87.9092 106.6797 0001643  86.4316 273.7004 13.18685424 82874
